LEMUR-2-GREENBERG       
1 42837U 17042N   26068.46200528  .00019778  00000+0  72539-3 0  9997
2 42837  97.3781 249.8007 0009157   4.0119 356.1192 15.27971352473146
STARLINK-30575          
1 58052U 23158B   26067.66667824  .00006698  00000+0  25285-3 0  9998
2 58052  43.0037  33.1816 0001738 277.6806 288.0882 15.27562199  5745
